0 FENGYUN 1C DEB
1 30963U 99025BBD 13282.66916615  .00029957  00000-0  28798-2 0  7583
2 30963 097.5383 081.6388 0220558 159.1209 201.8037 14.76378871350978
0 FENGYUN 1C DEB
1 30963U 99025BBD 13282.68078854  .00042268  00000-0  40453-2 0  7592
2 30963 097.5382 081.6552 0220925 159.0573 263.6030 14.76421886350975
0 FENGYUN 1C DEB
1 30963U 99025BBD 13283.68579395  .00030773  00000-0  29497-2 0  7604
2 30963 097.5405 082.5981 0221218 156.0327 205.1879 14.76452806351123
0 FENGYUN 1C DEB
1 30963U 99025BBD 13283.69801164  .00048104  00000-0  45972-2 0  7600
2 30963 097.5383 082.6062 0220680 155.7336 270.3822 14.76478437351127
0 FENGYUN 1C DEB
1 30963U 99025BBD 13285.72975818  .00036566  00000-0  34908-2 0  7622
2 30963 097.5369 084.5053 0220341 149.0843 270.3536 14.76622276351422
0 FENGYUN 1C DEB
1 30963U 99025BBD 13286.67828823  .00033072  00000-0  31566-2 0  7637
2 30963 097.5388 085.3951 0220113 145.9970 272.6942 14.76679860351564
0 FENGYUN 1C DEB
1 30963U 99025BBD 13287.69465590  .00036764  00000-0  35035-2 0  7645
2 30963 097.5379 086.3441 0219906 142.6697 275.9027 14.76743113351717
0 FENGYUN 1C DEB
1 30963U 99025BBD 13288.24915513  .00045388  00000-0  43169-2 0  7652
2 30963 097.5379 086.8627 0219791 140.8568 343.8400 14.76785028351796
0 FENGYUN 1C DEB
1 30963U 99025BBD 13288.71111233  .00040347  00000-0  38374-2 0  7664
2 30963 097.5380 087.2950 0219721 139.3490 279.8421 14.76820236351862
0 FENGYUN 1C DEB
1 30963U 99025BBD 13289.72746767  .00043073  00000-0  40897-2 0  7675
2 30963 097.5381 088.2455 0219566 136.0285 283.5072 14.76888526352015
0 FENGYUN 1C DEB
1 30963U 99025BBD 13290.67583684  .00039807  00000-0  37771-2 0  7686
2 30963 097.5384 089.1325 0219372 132.9317 285.9219 14.76955755352153
0 FENGYUN 1C DEB
1 30963U 99025BBD 13291.23032525  .00032766  00000-0  31102-2 0  7692
2 30963 097.5385 089.6508 0219302 131.0987 354.2324 14.76990737352233
0 FENGYUN 1C DEB
1 30963U 99025BBD 13292.24637937  .00031353  00000-0  29730-2 0  7709
2 30963 097.5388 090.6014 0219188 127.7710 356.9004 14.77051729352388
0 FENGYUN 1C DEB
1 30963U 99025BBD 13293.65740861  .00033522  00000-0  31725-2 0  7714
2 30963 097.5392 091.9218 0219040 123.1536 300.1212 14.77129063352598
0 FENGYUN 1C DEB
1 30963U 99025BBD 13294.67310362  .00033593  00000-0  31766-2 0  7720
2 30963 097.5395 092.8723 0218885 119.8286 301.3755 14.77179816352745
0 FENGYUN 1C DEB
1 30963U 99025BBD 13295.68869487  .00033238  00000-0  31393-2 0  7732
2 30963 097.5394 093.8223 0218802 116.5099 302.2622 14.77235390352894
